OSCAR 7 (AO-7)          
1 07530U 74089B   24020.57402559 -.00000012  00000+0  21289-3 0  9996
2 07530 101.9692  13.8831 0012278   9.1688 109.7949 12.53671364250410
PHASE 3B (AO-10)        
1 14129U 83058B   24015.92450074 -.00000488  00000+0  00000+0 0  9993
2 14129  27.4733   3.2838 6032805 236.9641  50.7403  2.05871616277308
UOSAT 2 (UO-11)         
1 14781U 84021B   24020.84676125  .00002484  00000+0  29064-3 0  9994
2 14781  97.6859 354.8334 0007521 194.8364 165.2632 14.85918690147454
LUSAT (LO-19)           
1 20442U 90005G   24020.55000200  .00000430  00000+0  17271-3 0  9993
2 20442  98.8698   7.0195 0010655 260.9972  99.0006 14.33417230776480
EYESAT A (AO-27)        
1 22825U 93061C   24020.61954489  .00000239  00000+0  10940-3 0  9992
2 22825  98.8126  71.6903 0009015 147.7642 212.4092 14.30413634581370
ITAMSAT (IO-26)         
1 22826U 93061D   24020.07777779  .00000257  00000+0  11564-3 0  9991
2 22826  98.8072  71.0028 0009678 135.7228 224.4730 14.30785919581577
RADIO ROSTO (RS-15)     
1 23439U 94085A   24020.55832488 -.00000046  00000+0 -89879-4 0  9994
2 23439  64.8176 284.1343 0154934 171.3847 188.9790 11.27575426196836
JAS-2 (FO-29)           
1 24278U 96046B   24020.42700734  .00000003  00000+0  40088-4 0  9999
2 24278  98.5631 334.7048 0349555 213.4948 144.3644 13.53170213354316
TECHSAT 1B (GO-32)      
1 25397U 98043D   24020.48936939  .00000235  00000+0  12217-3 0  9994
2 25397  98.9012 345.1678 0000804 175.7516 184.3669 14.23972999326255
ISS (ZARYA)             
1 25544U 98067A   24020.87835618  .00021348  00000+0  38550-3 0  9995
2 25544  51.6420 330.2296 0004951 110.9950 344.4936 15.49659864435551
PCSAT (NO-44)           
1 26931U 01043C   24020.28458734  .00000508  00000+0  22369-3 0  9995
2 26931  67.0523 356.1880 0005287 267.7771  92.2725 14.31099506164642
SAUDISAT 1C (SO-50)     
1 27607U 02058C   24020.26735265  .00002271  00000+0  32692-3 0  9997
2 27607  64.5565 318.9956 0042823 173.0144 187.1566 14.78215535134301
CUTE-1 (CO-55)          
1 27844U 03031E   24019.97107457  .00000691  00000+0  32585-3 0  9999
2 27844  98.6789  29.0922 0009166 212.4029 147.6587 14.23043681 66563
CUBESAT XI-IV (CO-57)   
1 27848U 03031J   24019.98898731  .00000581  00000+0  27986-3 0  9993
2 27848  98.6821  29.4329 0008800 229.3532 130.6881 14.22517172 66322
MOZHAYETS 4 (RS-22)     
1 27939U 03042A   24020.79670333  .00002393  00000+0  41414-3 0  9998
2 27939  98.2674 174.9157 0012513 164.1930 327.5908 14.69236684 86487
CUBESAT XI-V            
1 28895U 05043F   24020.36702443  .00003094  00000+0  56276-3 0  9995
2 28895  98.1778 156.3081 0017113 106.5858 253.7226 14.66751653972632
CUTE-1.7+APD II (CO-65) 
1 32785U 08021C   24020.89595351  .00006962  00000+0  64702-3 0  9993
2 32785  97.7354 347.8891 0013164  98.6475 261.6237 14.94605557853386
SEEDS II (CO-66)        
1 32791U 08021J   24019.90963155  .00010878  00000+0  87047-3 0  9999
2 32791  97.6789 352.4561 0009665  61.9102 298.3098 15.00325185854197
YUBILEINY (RS-30)       
1 32953U 08025A   24020.82610839  .00000050  00000+0  29079-3 0  9996
2 32953  82.5033 181.7429 0019827  70.6377 289.6844 12.43134540710695
KKS-1 (KISEKI)          
1 33499U 09002H   24020.78805143  .00002725  00000+0  38511-3 0  9999
2 33499  98.1533 280.7131 0007276 245.8676 114.1774 14.77980365806628
SWISSCUBE               
1 35932U 09051B   24020.59364177  .00002135  00000+0  47042-3 0  9997
2 35932  98.4924 260.8262 0008433  60.4640 299.7398 14.58452746760932
BEESAT-1                
1 35933U 09051C   24020.57549130  .00001844  00000+0  40954-3 0  9991
2 35933  98.4850 261.9003 0006836  71.9222 288.2720 14.58267761760960
ITUPSAT1                
1 35935U 09051E   24020.55476081  .00001718  00000+0  39038-3 0  9996
2 35935  98.4952 261.7365 0009113  76.2913 283.9299 14.57267601760617
XIWANG-1 (HOPE-1)       
1 36122U 09072B   24020.83206022  .00000007  00000+0  13313-3 0  9993
2 36122 100.2730 343.1434 0008125  83.9529 276.2510 13.16394082677542
JUGNU                   
1 37839U 11058B   24020.83718778  .00000689  00000+0  22258-3 0  9996
2 37839  19.9599 242.2705 0018804  99.8044 353.2366 14.13100499634712
SRMSAT                  
1 37841U 11058D   24020.27822274  .00000621  00000+0  19522-3 0  9990
2 37841  19.9738 337.3563 0011685 257.2596 246.2947 14.11020356633503
M-CUBED & EXP-1 PRIME   
1 37855U 11061F   24020.21664308  .00064018  00000+0  12280-2 0  9998
2 37855 101.6889 112.6190 0082190  87.3263 273.7374 15.44078585669834
STRAND-1                
1 39090U 13009E   24020.51087128  .00000711  00000+0  25990-3 0  9990
2 39090  98.3801 212.8867 0008619 343.5958  16.4948 14.35856463570905
BEESAT-2                
1 39136U 13015G   24020.16445831  .00707120  21198-3  20476-2 0  9994
2 39136  64.8482 326.9751 0006306 243.4971 116.5546 15.92681067595422
ZACUBE-1 (TSHEPISOSAT)  
1 39417U 13066B   24020.86306159  .00006461  00000+0  70626-3 0  9996
2 39417  97.7149 340.5720 0051075 291.4880  68.0895 14.87232590549526
